STARLINK-1246           
1 45235U 20012BK  24046.80577666  .00000365  00000+0  43430-4 0  9996
2 45235  53.0538 186.4434 0001465  92.0045 268.1112 15.06395160221384
STARLINK-1247           
1 45236U 20012BL  24046.72101483  .00020246  00000+0  13757-2 0  9995
2 45236  53.0522 146.8256 0001380  84.0348 276.0798 15.06358980221908
STARLINK-1270           
1 45237U 20012BM  24046.54409750  .00005312  00000+0  37530-3 0  9997
2 45237  53.0530 147.6204 0001723  63.1333 296.9832 15.06391989221886
STARLINK-1279           
1 45360U 20019A   24046.90070522  .00002504  00000+0  18693-3 0  9991
2 45360  53.0535 276.0197 0001418  92.6097 267.5055 15.06395989216677
STARLINK-1301           
1 45361U 20019B   24046.95507212  .00000475  00000+0  50795-4 0  9993
2 45361  53.0541 285.7767 0001451  98.0428 262.0725 15.06388709216553
STARLINK-1306           
1 45362U 20019C   24046.93479713  .00017552  00000+0  11946-2 0  9993
2 45362  53.0539 305.8692 0001100  83.2854 276.8260 15.06390409216267
STARLINK-1313           
1 45364U 20019E   24046.82319737  .00036523  00000+0  13370-2 0  9994
2 45364  53.0227 241.0300 0000811 198.7806 161.3162 15.27714830217167
STARLINK-1262           
1 45366U 20019G   24046.92005345  .00007247  00000+0  50495-3 0  9995
2 45366  53.0539 305.9354 0002195  88.6974 271.4267 15.06396522216275
STARLINK-1273           
1 45367U 20019H   24046.94216700  .00011154  00000+0  76610-3 0  9996
2 45367  53.0551 305.8358 0001496 107.3264 252.7889 15.06421317216270
STARLINK-1276           
1 45368U 20019J   24046.91268423 -.00000916  00000+0 -42568-4 0  9995
2 45368  53.0547 305.9647 0002373  90.6891 269.4370 15.06389136216275
STARLINK-1277           
1 45369U 20019K   24046.91173819 -.00001359  00000+0 -72357-4 0  9991
2 45369  53.0546 305.9688 0002268 103.0014 257.1228 15.06387613216273
STARLINK-1281           
1 45370U 20019L   24046.90163121  .00012075  00000+0  82854-3 0  9994
2 45370  53.0540 306.0199 0002946  84.0956 276.0369 15.06381325216274
STARLINK-1287           
1 45371U 20019M   24046.93016406  .00015045  00000+0  10275-2 0  9998
2 45371  53.0541 305.8790 0001384  85.4688 274.6459 15.06372963216274
STARLINK-1288           
1 45372U 20019N   24046.94585047  .00000462  00000+0  49930-4 0  9991
2 45372  53.0545 305.8198 0001239  93.9486 266.1644 15.06387216216279
STARLINK-1295           
1 45373U 20019P   24046.92742759  .00016228  00000+0  11062-2 0  9995
2 45373  53.0546 305.9029 0001412  81.7924 278.3225 15.06387688216273
STARLINK-1300           
1 45374U 20019Q   24046.92373705  .00015387  00000+0  10501-2 0  9999
2 45374  53.0539 305.9188 0001347  83.7567 276.3575 15.06383600216270
STARLINK-1302           
1 45375U 20019R   24046.93848152  .00015159  00000+0  10349-2 0  9991
2 45375  53.0541 305.8527 0001140  96.0750 264.0368 15.06380313216274
STARLINK-1304           
1 45376U 20019S   24046.89056239 -.00007237  00000+0 -46747-3 0  9996
2 45376  53.0544 306.0629 0001825 121.4801 238.6367 15.06396290216260
STARLINK-1305           
1 45377U 20019T   24046.91637150  .00001848  00000+0  14297-3 0  9992
2 45377  53.0556 305.9478 0002237 108.2634 251.8599 15.06388436216277
STARLINK-1310           
1 45378U 20019U   24046.90530969  .00004314  00000+0  30841-3 0  9996
2 45378  53.0538 306.0003 0001247  96.7200 263.3931 15.06390939216273
STARLINK-1319           
1 45379U 20019V   24046.90899653  .00003432  00000+0  24920-3 0  9996
2 45379  53.0541 305.9868 0001327 114.6684 245.4443 15.06392079216276
STARLINK-1207           
1 45380U 20019W   24046.90715120  .00004326  00000+0  30918-3 0  9991
2 45380  53.0538 285.9912 0001256 103.9899 256.1230 15.06395238216544
STARLINK-1258           
1 45381U 20019X   24046.91822268 -.00009321  00000+0 -60832-3 0  9995
2 45381  53.0531 285.9409 0001547  78.7119 281.4044 15.06359736216543
STARLINK-1266           
1 45383U 20019Z   24046.91084155  .00003168  00000+0  23155-3 0  9990
2 45383  53.0530 285.9729 0001565  83.2726 276.8441 15.06392474216549
STARLINK-1267           
1 45384U 20019AA  24046.96518570 -.00000564  00000+0 -19007-4 0  9990
2 45384  53.0532 285.7197 0001372 101.6950 258.4193 15.06386034216555
STARLINK-1272           
1 45386U 20019AC  24046.90347009  .00002636  00000+0  19584-3 0  9992
2 45386  53.0533 286.0044 0001338 108.7384 251.3751 15.06394469216546
STARLINK-1274           
1 45387U 20019AD  24046.92558434  .00003702  00000+0  26734-3 0  9991
2 45387  53.0534 285.9053 0001646 125.1896 234.9247 15.06393588216547
STARLINK-1280           
1 45388U 20019AE  24046.89425161  .00010171  00000+0  70063-3 0  9990
2 45388  53.0543 306.0491 0001181 110.9438 249.1677 15.06403520216258
STARLINK-1283           
1 45389U 20019AF  24046.94033644  .00006507  00000+0  45540-3 0  9998
2 45389  53.0544 285.8451 0001638  84.6940 275.4235 15.06396323216559
STARLINK-1284           
1 45390U 20019AG  24046.91452405  .00005189  00000+0  36699-3 0  9997
2 45390  53.0540 285.9584 0001338  90.0388 270.0754 15.06396582216542
STARLINK-1289           
1 45391U 20019AH  24046.92832074  .00000563  00000+0  56675-4 0  9991
2 45391  53.0541 285.8861 0001258  83.2788 276.8344 15.06390234216277
STARLINK-1290           
1 45392U 20019AJ  24046.91667824  .00140748  00000+0  12099-2 0  9990
2 45392  52.9720 143.6388 0003946 327.8608 351.9648 15.68401485  5877
STARLINK-1291           
1 45393U 20019AK  24046.95875114  .00000430  00000+0  47762-4 0  9998
2 45393  53.0538 285.7567 0001405  57.5264 302.5861 15.06385002216317
STARLINK-1292           
1 45394U 20019AL  24046.92190299  .00005160  00000+0  36517-3 0  9990
2 45394  53.0539 285.9247 0001407  90.5886 269.5264 15.06390648216282
STARLINK-1297           
1 45395U 20019AM  24046.95139586  .00007152  00000+0  49846-3 0  9998
2 45395  53.0533 285.7913 0001396  95.3914 264.7234 15.06404833215732
STARLINK-1303           
1 45396U 20019AN  24046.93295669  .00003368  00000+0  24498-3 0  9993
2 45396  53.0524 285.8778 0001403  78.7073 281.4073 15.06389638216264
STARLINK-1307           
1 45397U 20019AP  24046.94401099  .00000612  00000+0  59990-4 0  9996
2 45397  53.0547 285.8232 0001483  89.4906 270.6253 15.06394188216375
STARLINK-1312           
1 45398U 20019AQ  24046.93663982  .00004293  00000+0  30692-3 0  9993
2 45398  53.0535 285.8579 0001206  78.5119 281.6005 15.06397042216307
STARLINK-1255           
1 45399U 20019AR  24046.91175838  .00000004  00000+0  19187-4 0  9993
2 45399  53.0522 275.9742 0001164  87.9202 272.1921 15.06391813216498
STARLINK-1213           
1 45400U 20019AS  24046.84438871  .00015319  00000+0  64469-3 0  9994
2 45400  53.0788 252.5996 0000854 271.2309  88.8589 15.23577844216758
STARLINK-1256           
1 45401U 20019AT  24046.92282244  .00000520  00000+0  53827-4 0  9990
2 45401  53.0548 275.9195 0001312  95.4483 264.6655 15.06383076216494
STARLINK-1257           
1 45402U 20019AU  24046.87735262  .00070666  00000+0  30850-2 0  9995
2 45402  53.0471 268.6814 0001991 207.2445 152.8446 15.21504942216604
STARLINK-1259           
1 45403U 20019AV  24046.86753700  .00002832  00000+0  20898-3 0  9994
2 45403  53.0532 276.1657 0001415  82.5879 277.5271 15.06390241216483
STARLINK-1260           
1 45404U 20019AW  24046.94492889 -.00003462  00000+0 -21371-3 0  9991
2 45404  53.0541 275.8250 0001572 103.1529 256.9636 15.06387909216400
STARLINK-1263           
1 45405U 20019AX  24046.93020969 -.00002949  00000+0 -17929-3 0  9990
2 45405  53.0529 275.8875 0001102  76.8970 283.2142 15.06372680216400
STARLINK-1265           
1 45406U 20019AY  24046.93756389  .00000124  00000+0  27219-4 0  9998
2 45406  53.0530 275.8508 0001416  99.4937 260.6212 15.06390821216402
STARLINK-1275           
1 45407U 20019AZ  24046.95136489  .00004610  00000+0  32820-3 0  9991
2 45407  53.0531 275.7938 0001428  88.1566 271.9587 15.06395319216403
STARLINK-1278           
1 45408U 20019BA  24046.89793552  .00002221  00000+0  16799-3 0  9998
2 45408  53.0538 306.0338 0002135  83.9207 276.2025 15.06389577215980
STARLINK-1282           
1 45409U 20019BB  24046.89333947  .00005814  00000+0  40891-3 0  9998
2 45409  53.0529 276.0520 0001391  88.3777 271.7371 15.06396534216407
STARLINK-1293           
1 45411U 20019BD  24046.90807474  .00003423  00000+0  24864-3 0  9990
2 45411  53.0536 275.9869 0001415  89.0215 271.0936 15.06394857216422
STARLINK-1296           
1 45412U 20019BE  24046.94123388  .00005144  00000+0  36388-3 0  9996
2 45412  53.0529 275.8378 0001348  97.4805 262.6337 15.06411466216407
STARLINK-1298           
1 45413U 20019BF  24046.90438992  .00001959  00000+0  15036-3 0  9990
2 45413  53.0520 276.0033 0001359  84.1939 275.9205 15.06395021216491
STARLINK-1309           
1 45414U 20019BG  24046.88964258 -.00000486  00000+0 -13770-4 0  9997
2 45414  53.0547 276.0688 0001360  89.8375 270.2770 15.06386224216383
STARLINK-1316           
1 45415U 20019BH  24046.91544212 -.00001444  00000+0 -78041-4 0  9993
2 45415  53.0537 275.9548 0001524  86.1873 273.9290 15.06395797216428
STARLINK-1318           
1 45416U 20019BJ  24046.94862206  .00000790  00000+0  71973-4 0  9991
2 45416  53.0532 275.8021 0001476  93.2790 266.8368 15.06392258216417
STARLINK-1286           
1 45417U 20019BK  24046.95322631 -.00000159  00000+0  82226-5 0  9990
2 45417  53.0539 305.7800 0001275  76.2933 283.8198 15.06389394216260
STARLINK-1308           
1 45419U 20019BM  24046.94954077  .00001075  00000+0  91048-4 0  9994
2 45419  53.0545 305.8030 0001259  96.5486 263.5646 15.06391217216018
STARLINK-1329           
1 45531U 20025A   24046.85187186  .00004545  00000+0  32377-3 0  9999
2 45531  53.0543 246.2402 0001421  99.6023 260.5127 15.06403690211626
STARLINK-1338           
1 45532U 20025B   24046.92925834 -.00001075  00000+0 -53303-4 0  9998
2 45532  53.0535 245.8901 0001472  89.6773 270.4384 15.06390721211630
